{
"type": "FeatureCollection",
"name": "ergebnis",
"crs": { "type": "name", "properties": { "name": "urn:ogc:def:crs:OGC:1.3:CRS84" } },
"features": [
{ "type": "Feature", "properties": { "element": "relation", "id": 3190191, "amenity": "parking", "flaeche_m2": 2296.7900252789973, "prioritaet": "Hoch", "massnahme": "Pocket-Park" }, "geometry": { "type": "MultiPolygon", "coordinates": [ [ [ [ 8.2657543, 50.0003191 ], [ 8.2656882, 50.0002737 ], [ 8.2659597, 50.0001118 ], [ 8.2659284, 50.00009 ], [ 8.2655834, 49.9998578 ], [ 8.2654551, 49.9999257 ], [ 8.2654869, 49.999949 ], [ 8.2653503, 50.000025599999987 ], [ 8.2653362, 50.0000153 ], [ 8.2652983, 50.0000367 ], [ 8.2652608, 50.0000579 ], [ 8.2652868, 50.000077 ], [ 8.2651959, 50.0001282 ], [ 8.2651699, 50.0001091 ], [ 8.2651336, 50.0001295 ], [ 8.2651551, 50.000146 ], [ 8.2650517, 50.000204399999987 ], [ 8.2650248, 50.0002196 ], [ 8.2649941, 50.000196299999985 ], [ 8.2648807, 50.000258599999981 ], [ 8.2651762, 50.0004688 ], [ 8.2652074, 50.0004493 ], [ 8.2653079, 50.000515900000011 ], [ 8.2653219, 50.000507 ], [ 8.2653295, 50.0005019 ], [ 8.2655497, 50.0003689 ], [ 8.2656047, 50.0004074 ], [ 8.2656736, 50.0003658 ], [ 8.2657543, 50.0003191 ] ], [ [ 8.2656497, 50.000182 ], [ 8.2654664, 50.0000544 ], [ 8.265562, 49.9999977 ], [ 8.2657453, 50.0001253 ], [ 8.2656497, 50.000182 ] ], [ [ 8.2651201, 50.0002707 ], [ 8.2651359, 50.0002612 ], [ 8.2652166, 50.000212599999983 ], [ 8.2654026, 50.000340199999989 ], [ 8.2653061, 50.0003983 ], [ 8.2651201, 50.0002707 ] ] ] ] } },
{ "type": "Feature", "properties": { "element": "relation", "id": 6039861, "amenity": "parking", "flaeche_m2": 6356.1339049545804, "prioritaet": "Hoch", "massnahme": "Pocket-Park" }, "geometry": { "type": "MultiPolygon", "coordinates": [ [ [ [ 8.2561177, 49.9656188 ], [ 8.2560693, 49.9655853 ], [ 8.2560169, 49.9655443 ], [ 8.2559559, 49.9654892 ], [ 8.2559013, 49.9655138 ], [ 8.2558821, 49.9654965 ], [ 8.2558629, 49.9654792 ], [ 8.2558437, 49.965462 ], [ 8.2558245, 49.9654447 ], [ 8.2558053, 49.9654274 ], [ 8.2557861, 49.9654101 ], [ 8.2557668, 49.965392799999989 ], [ 8.2557477, 49.9653756 ], [ 8.2557285, 49.9653583 ], [ 8.2557092, 49.965341 ], [ 8.25569, 49.9653237 ], [ 8.2556708, 49.9653064 ], [ 8.2556516, 49.9652891 ], [ 8.2556324, 49.9652719 ], [ 8.2556132, 49.9652546 ], [ 8.255594, 49.9652373 ], [ 8.2556271, 49.965222 ], [ 8.2556595, 49.9652216 ], [ 8.255631, 49.9651959 ], [ 8.2556022, 49.9651698 ], [ 8.2555913, 49.965189 ], [ 8.2555575, 49.9652045 ], [ 8.2553327, 49.9650014 ], [ 8.255369, 49.9649848 ], [ 8.255389, 49.9649854 ], [ 8.2553983, 49.964985699999986 ], [ 8.2553654, 49.9649561 ], [ 8.2553214, 49.9649163 ], [ 8.2553145, 49.9649347 ], [ 8.2552776, 49.9649516 ], [ 8.2552247, 49.964916 ], [ 8.2546641, 49.9651841 ], [ 8.2558221, 49.9662237 ], [ 8.2559095, 49.9661835 ], [ 8.2558727, 49.9661505 ], [ 8.2560388, 49.966074 ], [ 8.2560122, 49.9661228 ], [ 8.2564015, 49.9662109 ], [ 8.2566353, 49.96578250000001 ], [ 8.2566038, 49.9657756 ], [ 8.2565311, 49.965759699999985 ], [ 8.2565429, 49.9657748 ], [ 8.2565421, 49.9657883 ], [ 8.256532, 49.9658005 ], [ 8.2565131, 49.9658089 ], [ 8.2564959, 49.9658108 ], [ 8.2564851, 49.965809900000011 ], [ 8.2565095, 49.9657833 ], [ 8.2562013, 49.9656662 ], [ 8.256171, 49.9657024 ], [ 8.2560894, 49.9656379 ], [ 8.2561177, 49.9656188 ] ], [ [ 8.2554271, 49.9656879 ], [ 8.2555297, 49.9656406 ], [ 8.2555416, 49.9656351 ], [ 8.2554918, 49.965590399999989 ], [ 8.2555709, 49.965554 ], [ 8.2556207, 49.9655987 ], [ 8.2556369, 49.9655913 ], [ 8.2556923, 49.9655658 ], [ 8.2557358, 49.965545699999986 ], [ 8.2558106, 49.965613 ], [ 8.2557117, 49.9656585 ], [ 8.2557525, 49.9656952 ], [ 8.2559339, 49.965611599999988 ], [ 8.2562359, 49.965882899999983 ], [ 8.2562833, 49.9658611 ], [ 8.256319, 49.965893199999989 ], [ 8.2562716, 49.9659151 ], [ 8.2562732, 49.9659165 ], [ 8.255799, 49.9661348 ], [ 8.2554597, 49.96583 ], [ 8.2556454, 49.9657445 ], [ 8.2556046, 49.9657079 ], [ 8.255502, 49.9657551 ], [ 8.2554271, 49.9656879 ] ] ] ] } },
{ "type": "Feature", "properties": { "element": "relation", "id": 9792472, "amenity": "parking", "flaeche_m2": 5249.5656541584776, "prioritaet": "Hoch", "massnahme": "Pocket-Park" }, "geometry": { "type": "MultiPolygon", "coordinates": [ [ [ [ 8.2195826, 49.9925562 ], [ 8.2195256, 49.9926968 ], [ 8.2196425, 49.9927164 ], [ 8.2197042, 49.9927268 ], [ 8.219766, 49.9927426 ], [ 8.2197097, 49.99288210000001 ], [ 8.2196451, 49.9928727 ], [ 8.2195836, 49.9928624 ], [ 8.2194664, 49.9928428 ], [ 8.2194097, 49.9929827 ], [ 8.219834, 49.9930538 ], [ 8.220081, 49.9930946 ], [ 8.2201147, 49.9930893 ], [ 8.220121, 49.9931057 ], [ 8.2201751, 49.993115 ], [ 8.2202414, 49.993126 ], [ 8.2202321, 49.993149099999989 ], [ 8.2203378, 49.9931667 ], [ 8.2203471, 49.9931436 ], [ 8.220377, 49.9931486 ], [ 8.2204357, 49.9930033 ], [ 8.22029, 49.9929789 ], [ 8.2203079, 49.9929347 ], [ 8.2203707, 49.9929452 ], [ 8.2203933, 49.992889099999985 ], [ 8.2204864, 49.9929047 ], [ 8.2205369, 49.9927844 ], [ 8.220562, 49.9927175 ], [ 8.2201013, 49.9926407 ], [ 8.2200467, 49.9926316 ], [ 8.2200876, 49.9925302 ], [ 8.2201055, 49.9924859 ], [ 8.2201601, 49.992495 ], [ 8.2201421, 49.992539299999983 ], [ 8.2203203, 49.9925691 ], [ 8.2203431, 49.9925128 ], [ 8.2203795, 49.9924225 ], [ 8.2203966, 49.992380199999985 ], [ 8.2190046, 49.992148 ], [ 8.2189468, 49.992291 ], [ 8.2190172, 49.9923028 ], [ 8.2190235, 49.9922872 ], [ 8.2190517, 49.9922919 ], [ 8.2190475, 49.992302100000011 ], [ 8.2190892, 49.9923115 ], [ 8.2195273, 49.9923848 ], [ 8.2195609, 49.9923905 ], [ 8.2198186, 49.9924336 ], [ 8.2197571, 49.9925854 ], [ 8.2195826, 49.9925562 ] ], [ [ 8.2199464, 49.9927697 ], [ 8.2199224, 49.992765 ], [ 8.2199415, 49.9927241 ], [ 8.2199655, 49.9927287 ], [ 8.2199464, 49.9927697 ] ], [ [ 8.220276, 49.9927798 ], [ 8.2202586, 49.9928206 ], [ 8.2202342, 49.9928163 ], [ 8.2202515, 49.9927755 ], [ 8.220276, 49.9927798 ] ], [ [ 8.219871, 49.9929551 ], [ 8.2198471, 49.9929511 ], [ 8.2198643, 49.9929089 ], [ 8.2198882, 49.9929129 ], [ 8.219871, 49.9929551 ] ], [ [ 8.2201833, 49.9930065 ], [ 8.2201601, 49.9930027 ], [ 8.2201773, 49.992960099999976 ], [ 8.2202004, 49.992964 ], [ 8.2201833, 49.9930065 ] ] ] ] } },
{ "type": "Feature", "properties": { "element": "relation", "id": 10938879, "amenity": "parking", "flaeche_m2": 29515.752013775746, "prioritaet": "Hoch", "massnahme": "Pocket-Park" }, "geometry": { "type": "MultiPolygon", "coordinates": [ [ [ [ 8.276364, 49.9791573 ], [ 8.2763747, 49.979158 ], [ 8.2764243, 49.9791505 ], [ 8.276452, 49.9791221 ], [ 8.2764552, 49.9791004 ], [ 8.2764583, 49.9790788 ], [ 8.2764614, 49.9790572 ], [ 8.2764645, 49.9790355 ], [ 8.2764677, 49.9790139 ], [ 8.2764708, 49.9789923 ], [ 8.2764739, 49.9789706 ], [ 8.276477, 49.978949 ], [ 8.2764802, 49.9789274 ], [ 8.2764833, 49.9789057 ], [ 8.2764864, 49.9788841 ], [ 8.2764895, 49.9788625 ], [ 8.2764927, 49.9788408 ], [ 8.2764958, 49.9788192 ], [ 8.2764989, 49.9787976 ], [ 8.2765021, 49.978776 ], [ 8.2765052, 49.9787543 ], [ 8.2765083, 49.9787327 ], [ 8.2765114, 49.978711099999984 ], [ 8.2765146, 49.9786894 ], [ 8.2765176, 49.9786685 ], [ 8.2767167, 49.9786792 ], [ 8.2767134, 49.9787007 ], [ 8.2767102, 49.9787223 ], [ 8.276707, 49.9787438 ], [ 8.2767038, 49.9787653 ], [ 8.2767006, 49.9787869 ], [ 8.2766974, 49.9788084 ], [ 8.2766942, 49.9788299 ], [ 8.2766909, 49.9788514 ], [ 8.2766877, 49.978873 ], [ 8.2766845, 49.97889450000001 ], [ 8.2766813, 49.978916 ], [ 8.2766781, 49.9789376 ], [ 8.2766749, 49.9789591 ], [ 8.2766717, 49.9789806 ], [ 8.2766684, 49.9790022 ], [ 8.2766652, 49.979023699999985 ], [ 8.276662, 49.9790452 ], [ 8.2766588, 49.9790668 ], [ 8.2766556, 49.9790883 ], [ 8.2766524, 49.9791098 ], [ 8.2766491, 49.9791314 ], [ 8.2766459, 49.97915290000001 ], [ 8.2766427, 49.9791744 ], [ 8.2767127, 49.9791788 ], [ 8.2770012, 49.9791968 ], [ 8.2770752, 49.9792013 ], [ 8.2770784, 49.9791797 ], [ 8.2770816, 49.9791581 ], [ 8.2770848, 49.9791366 ], [ 8.277088, 49.979115 ], [ 8.2770912, 49.979093399999989 ], [ 8.2770944, 49.9790718 ], [ 8.2770976, 49.9790502 ], [ 8.2771008, 49.9790286 ], [ 8.277104, 49.979007099999983 ], [ 8.2771072, 49.9789855 ], [ 8.2771104, 49.978963899999982 ], [ 8.2771136, 49.9789423 ], [ 8.2771168, 49.978920699999989 ], [ 8.27712, 49.9788991 ], [ 8.2771232, 49.9788776 ], [ 8.2771264, 49.978856 ], [ 8.2771296, 49.978834399999982 ], [ 8.2771328, 49.9788128 ], [ 8.277136, 49.9787912 ], [ 8.2771392, 49.9787696 ], [ 8.2771424, 49.9787481 ], [ 8.2771456, 49.9787265 ], [ 8.2771488, 49.9787049 ], [ 8.2772007, 49.9787081 ], [ 8.2771976, 49.9787294 ], [ 8.2771944, 49.9787509 ], [ 8.2771912, 49.9787725 ], [ 8.2771881, 49.978794 ], [ 8.2771849, 49.97881550000001 ], [ 8.2771817, 49.9788371 ], [ 8.2771785, 49.9788586 ], [ 8.2771754, 49.9788801 ], [ 8.2771722, 49.9789017 ], [ 8.277169, 49.9789232 ], [ 8.2771659, 49.9789447 ], [ 8.2771627, 49.978966299999989 ], [ 8.2771595, 49.9789878 ], [ 8.2771564, 49.9790093 ], [ 8.2771532, 49.9790309 ], [ 8.27715, 49.9790524 ], [ 8.2771468, 49.9790739 ], [ 8.2771437, 49.9790955 ], [ 8.2771405, 49.979117 ], [ 8.2771373, 49.9791385 ], [ 8.2771342, 49.9791601 ], [ 8.277131, 49.9791816 ], [ 8.2771276, 49.9792045 ], [ 8.2771957, 49.9792088 ], [ 8.2777871, 49.9792456 ], [ 8.2781154, 49.979266 ], [ 8.2781865, 49.9792704 ], [ 8.2781885, 49.9792573 ], [ 8.2781898, 49.9792486 ], [ 8.2781919, 49.9792343 ], [ 8.2781931, 49.9792268 ], [ 8.2781963, 49.979205 ], [ 8.2781995, 49.9791832 ], [ 8.2782027, 49.97916140000001 ], [ 8.2782059, 49.979139600000011 ], [ 8.2782092, 49.9791179 ], [ 8.2782124, 49.979096099999985 ], [ 8.2782156, 49.9790743 ], [ 8.2782188, 49.979052499999987 ], [ 8.278222, 49.9790307 ], [ 8.2782253, 49.9790089 ], [ 8.2782285, 49.9789871 ], [ 8.2782317, 49.9789653 ], [ 8.2782349, 49.9789435 ], [ 8.2782381, 49.9789218 ], [ 8.2782413, 49.9789 ], [ 8.2782439, 49.9788824 ], [ 8.2781753, 49.978861 ], [ 8.2780993, 49.9788364 ], [ 8.278033, 49.9788149 ], [ 8.2779665, 49.9787933 ], [ 8.2779694, 49.9787739 ], [ 8.2779791, 49.9787666 ], [ 8.2779907, 49.9787616 ], [ 8.2780022, 49.9787594 ], [ 8.2785044, 49.978791 ], [ 8.2785236, 49.9787944 ], [ 8.2785362, 49.9787997 ], [ 8.2785449, 49.9788071 ], [ 8.2785569, 49.9787208 ], [ 8.2785437, 49.9787281 ], [ 8.27853, 49.9787318 ], [ 8.2785128, 49.9787341 ], [ 8.2780101, 49.9787039 ], [ 8.2779978, 49.9786996 ], [ 8.2779896, 49.9786917 ], [ 8.2779832, 49.9786807 ], [ 8.2779881, 49.9786475 ], [ 8.2780599, 49.9786354 ], [ 8.2782843, 49.9785983 ], [ 8.2782864, 49.9785837 ], [ 8.2782896, 49.9785619 ], [ 8.2782927, 49.9785402 ], [ 8.2782959, 49.9785185 ], [ 8.278299, 49.9784967 ], [ 8.2783022, 49.978475 ], [ 8.2783053, 49.9784533 ], [ 8.2783084, 49.9784315 ], [ 8.2783116, 49.9784098 ], [ 8.2783147, 49.9783881 ], [ 8.2783179, 49.9783664 ], [ 8.278321, 49.9783446 ], [ 8.2783242, 49.9783229 ], [ 8.2783273, 49.9783012 ], [ 8.2783305, 49.9782794 ], [ 8.2783336, 49.9782577 ], [ 8.2783368, 49.978236 ], [ 8.2783399, 49.9782142 ], [ 8.2783431, 49.978192499999984 ], [ 8.2783462, 49.9781708 ], [ 8.2783513, 49.978136 ], [ 8.2783544, 49.97811440000001 ], [ 8.2783575, 49.9780928 ], [ 8.2783606, 49.9780713 ], [ 8.2783637, 49.978049700000014 ], [ 8.2783669, 49.9780282 ], [ 8.27837, 49.9780066 ], [ 8.2783731, 49.9779851 ], [ 8.2783762, 49.9779635 ], [ 8.2783794, 49.977942 ], [ 8.2783825, 49.9779204 ], [ 8.2783856, 49.9778988 ], [ 8.2783887, 49.9778773 ], [ 8.2783918, 49.9778557 ], [ 8.278395, 49.9778342 ], [ 8.2783981, 49.9778126 ], [ 8.2784012, 49.9777911 ], [ 8.2784043, 49.9777695 ], [ 8.2784074, 49.9777479 ], [ 8.2784106, 49.9777264 ], [ 8.2784137, 49.9777048 ], [ 8.278417, 49.977682 ], [ 8.2783536, 49.9776624 ], [ 8.2781432, 49.9775986 ], [ 8.2781462, 49.9775781 ], [ 8.2781562, 49.9775689 ], [ 8.2781661, 49.9775637 ], [ 8.2781856, 49.977563 ], [ 8.2786818, 49.9775927 ], [ 8.2787004, 49.9775968 ], [ 8.278712, 49.9776011 ], [ 8.2787229, 49.977609 ], [ 8.2787358, 49.9775238 ], [ 8.2787242, 49.9775306 ], [ 8.2787058, 49.9775361 ], [ 8.2786899, 49.9775386 ], [ 8.278195, 49.977511 ], [ 8.2781735, 49.9775072 ], [ 8.2781668, 49.9775032 ], [ 8.278162, 49.9774976 ], [ 8.2781606, 49.9774935 ], [ 8.278164, 49.977455099999986 ], [ 8.2782363, 49.9774419 ], [ 8.2783892, 49.9774137 ], [ 8.2784632, 49.9774001 ], [ 8.2784662, 49.9773793 ], [ 8.2784694, 49.9773579 ], [ 8.2784726, 49.9773364 ], [ 8.2784758, 49.977315 ], [ 8.2784789, 49.97729360000001 ], [ 8.2784821, 49.9772721 ], [ 8.2784853, 49.977250699999985 ], [ 8.2784884, 49.9772292 ], [ 8.2784916, 49.9772078 ], [ 8.2784948, 49.9771864 ], [ 8.278498, 49.9771649 ], [ 8.2785011, 49.9771435 ], [ 8.2785043, 49.97712210000001 ], [ 8.2785075, 49.9771006 ], [ 8.2785083, 49.9770948 ], [ 8.2785106, 49.9770792 ], [ 8.2785138, 49.9770578 ], [ 8.2784427, 49.97705340000001 ], [ 8.2775241, 49.976997 ], [ 8.2774533, 49.9769927 ], [ 8.2774501, 49.9770144 ], [ 8.2774469, 49.9770361 ], [ 8.2774437, 49.9770579 ], [ 8.2774405, 49.9770796 ], [ 8.2774373, 49.9771013 ], [ 8.2774341, 49.977123 ], [ 8.2774309, 49.9771447 ], [ 8.2774277, 49.9771664 ], [ 8.2774245, 49.9771882 ], [ 8.2774213, 49.9772099 ], [ 8.2774181, 49.9772316 ], [ 8.2774149, 49.9772533 ], [ 8.2774117, 49.977275 ], [ 8.2774085, 49.9772967 ], [ 8.2774053, 49.9773184 ], [ 8.2774021, 49.9773402 ], [ 8.2773989, 49.9773619 ], [ 8.2773957, 49.9773836 ], [ 8.2773925, 49.9774053 ], [ 8.2773893, 49.977427 ], [ 8.2773861, 49.9774487 ], [ 8.2773339, 49.9774457 ], [ 8.2773371, 49.977424 ], [ 8.2773403, 49.9774023 ], [ 8.2773436, 49.9773805 ], [ 8.2773468, 49.9773588 ], [ 8.27735, 49.9773371 ], [ 8.2773532, 49.9773154 ], [ 8.2773565, 49.9772937 ], [ 8.2773597, 49.9772719 ], [ 8.2773629, 49.9772502 ], [ 8.2773662, 49.9772285 ], [ 8.2773694, 49.9772068 ], [ 8.2773726, 49.977185 ], [ 8.2773759, 49.9771633 ], [ 8.2773791, 49.9771416 ], [ 8.2773823, 49.9771199 ], [ 8.2773856, 49.9770982 ], [ 8.2773888, 49.9770764 ], [ 8.277392, 49.9770547 ], [ 8.2773953, 49.977033 ], [ 8.2773985, 49.9770113 ], [ 8.2774017, 49.9769895 ], [ 8.2773278, 49.976985 ], [ 8.277036, 49.976967099999989 ], [ 8.2769662, 49.976963 ], [ 8.2769631, 49.9769848 ], [ 8.27696, 49.9770066 ], [ 8.276957, 49.9770284 ], [ 8.2769539, 49.977050199999987 ], [ 8.2769508, 49.977072 ], [ 8.2769478, 49.9770938 ], [ 8.2769447, 49.9771156 ], [ 8.2769417, 49.9771373 ], [ 8.2769386, 49.9771591 ], [ 8.2769355, 49.9771809 ], [ 8.2769325, 49.9772027 ], [ 8.2769294, 49.977224499999984 ], [ 8.2769263, 49.9772463 ], [ 8.2769233, 49.977268099999989 ], [ 8.2769202, 49.9772899 ], [ 8.2769171, 49.9773116 ], [ 8.2769141, 49.977333399999985 ], [ 8.276911, 49.9773552 ], [ 8.276908, 49.977377 ], [ 8.2769049, 49.9773988 ], [ 8.2769018, 49.9774206 ], [ 8.276701, 49.9774067 ], [ 8.2767036, 49.9773883 ], [ 8.2767068, 49.9773666 ], [ 8.2767099, 49.9773448 ], [ 8.276713, 49.9773231 ], [ 8.2767161, 49.9773014 ], [ 8.2767192, 49.9772796 ], [ 8.2767223, 49.9772579 ], [ 8.2767254, 49.9772361 ], [ 8.2767285, 49.9772144 ], [ 8.2767316, 49.9771926 ], [ 8.2767347, 49.9771709 ], [ 8.2767378, 49.9771492 ], [ 8.276741, 49.9771274 ], [ 8.2767441, 49.9771057 ], [ 8.2767472, 49.9770839 ], [ 8.2767503, 49.9770622 ], [ 8.2767534, 49.9770405 ], [ 8.2767565, 49.9770187 ], [ 8.2767596, 49.976997 ], [ 8.2767627, 49.9769752 ], [ 8.2767662, 49.9769508 ], [ 8.2766986, 49.9769468 ], [ 8.2764071, 49.9769295 ], [ 8.2763387, 49.9769253 ], [ 8.2763354, 49.9769469 ], [ 8.2763323, 49.9769682 ], [ 8.2763291, 49.9769895 ], [ 8.2763259, 49.9770108 ], [ 8.2763227, 49.9770321 ], [ 8.2763196, 49.9770534 ], [ 8.2763164, 49.97707470000001 ], [ 8.2763132, 49.977096 ], [ 8.27631, 49.9771173 ], [ 8.2763069, 49.9771386 ], [ 8.2763037, 49.9771599 ], [ 8.2763005, 49.9771812 ], [ 8.2762973, 49.9772024 ], [ 8.2762942, 49.9772237 ], [ 8.276291, 49.977245 ], [ 8.2762878, 49.9772663 ], [ 8.2762846, 49.9772876 ], [ 8.2762815, 49.9773089 ], [ 8.2762783, 49.9773302 ], [ 8.2762751, 49.9773515 ], [ 8.2762719, 49.9773728 ], [ 8.2762688, 49.9773941 ], [ 8.2762656, 49.9774154 ], [ 8.2762624, 49.9774366 ], [ 8.2762592, 49.9774579 ], [ 8.2762561, 49.9774792 ], [ 8.2762529, 49.9775005 ], [ 8.2762497, 49.9775218 ], [ 8.2762465, 49.9775431 ], [ 8.2762434, 49.9775644 ], [ 8.2762402, 49.9775857 ], [ 8.276237, 49.977607 ], [ 8.2762338, 49.9776283 ], [ 8.2762307, 49.9776496 ], [ 8.2762275, 49.9776709 ], [ 8.2762243, 49.9776921 ], [ 8.2762211, 49.9777134 ], [ 8.276218, 49.9777347 ], [ 8.2762148, 49.977756 ], [ 8.2762116, 49.9777773 ], [ 8.2762084, 49.9777986 ], [ 8.2762053, 49.9778199 ], [ 8.2762021, 49.9778412 ], [ 8.2761989, 49.9778625 ], [ 8.2761952, 49.9778872 ], [ 8.276203, 49.9779861 ], [ 8.2762039, 49.9779973 ], [ 8.2762051, 49.9780077 ], [ 8.2762229, 49.97816 ], [ 8.2762232, 49.9781686 ], [ 8.2762254, 49.9781901 ], [ 8.2762275, 49.9782117 ], [ 8.2762297, 49.9782332 ], [ 8.2762319, 49.9782547 ], [ 8.276234, 49.9782762 ], [ 8.2762362, 49.9782977 ], [ 8.2762383, 49.9783192 ], [ 8.2762405, 49.9783407 ], [ 8.2762427, 49.9783622 ], [ 8.2762448, 49.9783837 ], [ 8.276247, 49.9784052 ], [ 8.2762492, 49.9784267 ], [ 8.2762513, 49.9784482 ], [ 8.2762535, 49.9784697 ], [ 8.2762556, 49.9784912 ], [ 8.2762578, 49.9785127 ], [ 8.27626, 49.9785342 ], [ 8.2762621, 49.9785557 ], [ 8.2762643, 49.9785772 ], [ 8.2762665, 49.9785987 ], [ 8.2762686, 49.9786202 ], [ 8.2762708, 49.9786417 ], [ 8.2762729, 49.9786632 ], [ 8.2762751, 49.9786847 ], [ 8.2762773, 49.9787062 ], [ 8.2762794, 49.9787277 ], [ 8.2762816, 49.9787492 ], [ 8.2762838, 49.9787707 ], [ 8.2763125, 49.9790467 ], [ 8.2763237, 49.9791546 ], [ 8.276364, 49.9791573 ] ], [ [ 8.2780177, 49.9774678 ], [ 8.2780148, 49.9774868 ], [ 8.2778172, 49.9774747 ], [ 8.2778203, 49.9774541 ], [ 8.2778234, 49.977433 ], [ 8.2778266, 49.9774119 ], [ 8.2778297, 49.9773908 ], [ 8.2778328, 49.9773697 ], [ 8.277836, 49.977348599999978 ], [ 8.2778391, 49.9773275 ], [ 8.2778422, 49.9773064 ], [ 8.2778454, 49.9772853 ], [ 8.2778485, 49.977264199999986 ], [ 8.2778516, 49.9772431 ], [ 8.2778548, 49.977222 ], [ 8.2778579, 49.9772009 ], [ 8.277861, 49.9771798 ], [ 8.2778642, 49.9771587 ], [ 8.2778673, 49.9771376 ], [ 8.2778705, 49.977116499999987 ], [ 8.2778736, 49.9770954 ], [ 8.2778767, 49.9770746 ], [ 8.2780743, 49.9770868 ], [ 8.2780714, 49.9771058 ], [ 8.2780686, 49.9771249 ], [ 8.2780658, 49.9771439 ], [ 8.2780629, 49.977163 ], [ 8.2780601, 49.977182 ], [ 8.2780573, 49.9772011 ], [ 8.2780545, 49.9772201 ], [ 8.2780516, 49.9772392 ], [ 8.2780488, 49.9772582 ], [ 8.278046, 49.9772773 ], [ 8.2780431, 49.9772963 ], [ 8.2780403, 49.9773154 ], [ 8.2780375, 49.9773344 ], [ 8.2780346, 49.9773535 ], [ 8.2780318, 49.9773725 ], [ 8.278029, 49.9773916 ], [ 8.2780262, 49.9774106 ], [ 8.2780233, 49.9774297 ], [ 8.2780205, 49.9774487 ], [ 8.2780177, 49.9774678 ] ], [ [ 8.2779366, 49.9780132 ], [ 8.2779332, 49.9780361 ], [ 8.2779298, 49.9780591 ], [ 8.2777322, 49.9780469 ], [ 8.2777361, 49.9780207 ], [ 8.2777393, 49.9779989 ], [ 8.2777426, 49.9779772 ], [ 8.2777458, 49.9779554 ], [ 8.277749, 49.9779337 ], [ 8.2777523, 49.977912 ], [ 8.2777555, 49.9778902 ], [ 8.2777587, 49.9778685 ], [ 8.277762, 49.9778467 ], [ 8.2777652, 49.977825 ], [ 8.2777684, 49.9778033 ], [ 8.2777716, 49.9777815 ], [ 8.2777749, 49.9777598 ], [ 8.2777781, 49.9777381 ], [ 8.2777813, 49.9777163 ], [ 8.2777846, 49.9776946 ], [ 8.2777878, 49.9776728 ], [ 8.277791, 49.9776511 ], [ 8.2777942, 49.9776294 ], [ 8.2777975, 49.9776076 ], [ 8.2778007, 49.977585899999987 ], [ 8.2778039, 49.9775641 ], [ 8.2778072, 49.9775424 ], [ 8.2780048, 49.9775545 ], [ 8.2780014, 49.9775775 ], [ 8.277998, 49.9776004 ], [ 8.2779946, 49.9776233 ], [ 8.2779911, 49.9776463 ], [ 8.2779877, 49.9776692 ], [ 8.2779843, 49.9776921 ], [ 8.2779809, 49.9777151 ], [ 8.2779775, 49.977738 ], [ 8.2779741, 49.9777609 ], [ 8.2779707, 49.9777839 ], [ 8.2779673, 49.97780680000001 ], [ 8.2779639, 49.9778297 ], [ 8.2779605, 49.977852699999985 ], [ 8.2779571, 49.9778756 ], [ 8.2779537, 49.9778985 ], [ 8.2779503, 49.9779215 ], [ 8.2779469, 49.977944399999984 ], [ 8.2779434, 49.9779673 ], [ 8.27794, 49.9779903 ], [ 8.2779366, 49.9780132 ] ], [ [ 8.2766856, 49.9775204 ], [ 8.2766888, 49.9774986 ], [ 8.276692, 49.9774768 ], [ 8.2768894, 49.9774871 ], [ 8.2768862, 49.977509 ], [ 8.276883, 49.9775308 ], [ 8.2768798, 49.9775526 ], [ 8.2768767, 49.9775744 ], [ 8.2768735, 49.9775963 ], [ 8.2768703, 49.977618099999987 ], [ 8.2768671, 49.9776399 ], [ 8.2768639, 49.977661699999985 ], [ 8.2768607, 49.9776835 ], [ 8.2768575, 49.977705399999984 ], [ 8.2768543, 49.9777272 ], [ 8.2768511, 49.977749 ], [ 8.2768479, 49.977770799999988 ], [ 8.2768447, 49.9777926 ], [ 8.2768416, 49.977814499999987 ], [ 8.2768384, 49.9778363 ], [ 8.2768352, 49.9778581 ], [ 8.276832, 49.9778799 ], [ 8.2768288, 49.9779018 ], [ 8.2768256, 49.9779236 ], [ 8.2768224, 49.9779454 ], [ 8.2768192, 49.9779672 ], [ 8.276816, 49.977989 ], [ 8.2768128, 49.9780109 ], [ 8.2768095, 49.9780334 ], [ 8.2768046, 49.9780666 ], [ 8.2768014, 49.9780883 ], [ 8.2767982, 49.97811 ], [ 8.276795, 49.9781317 ], [ 8.2767918, 49.978153399999989 ], [ 8.2767886, 49.9781751 ], [ 8.2767854, 49.9781968 ], [ 8.2767821, 49.9782185 ], [ 8.2767789, 49.978240199999988 ], [ 8.2767757, 49.9782619 ], [ 8.2767725, 49.9782836 ], [ 8.2767693, 49.9783053 ], [ 8.2767661, 49.978327 ], [ 8.2767629, 49.9783487 ], [ 8.2767597, 49.9783704 ], [ 8.2767564, 49.9783921 ], [ 8.2767532, 49.9784138 ], [ 8.27675, 49.978435499999989 ], [ 8.2767468, 49.9784572 ], [ 8.2767436, 49.9784789 ], [ 8.2767404, 49.9785006 ], [ 8.2767372, 49.9785223 ], [ 8.276734, 49.978544 ], [ 8.2767308, 49.9785657 ], [ 8.2767275, 49.9785874 ], [ 8.2767246, 49.9786073 ], [ 8.2765273, 49.9785952 ], [ 8.2765304, 49.9785744 ], [ 8.2765334, 49.9785536 ], [ 8.2765365, 49.9785328 ], [ 8.2765395, 49.978512 ], [ 8.2765426, 49.9784912 ], [ 8.2765457, 49.9784704 ], [ 8.2765487, 49.9784496 ], [ 8.2765518, 49.9784288 ], [ 8.2765549, 49.978408 ], [ 8.2765579, 49.9783872 ], [ 8.276561, 49.9783664 ], [ 8.276564, 49.9783457 ], [ 8.2765671, 49.9783249 ], [ 8.2765702, 49.9783041 ], [ 8.2765732, 49.9782833 ], [ 8.2765763, 49.9782625 ], [ 8.2765794, 49.978241699999984 ], [ 8.2765824, 49.9782209 ], [ 8.2765855, 49.9782001 ], [ 8.2765885, 49.9781793 ], [ 8.2765916, 49.9781585 ], [ 8.2765947, 49.9781377 ], [ 8.2765977, 49.978116900000011 ], [ 8.2766008, 49.9780961 ], [ 8.2766039, 49.9780753 ], [ 8.2766069, 49.9780545 ], [ 8.2766118, 49.9780212 ], [ 8.276615, 49.9779994 ], [ 8.2766182, 49.9779777 ], [ 8.2766214, 49.9779559 ], [ 8.2766247, 49.9779341 ], [ 8.2766279, 49.9779123 ], [ 8.2766311, 49.9778906 ], [ 8.2766343, 49.977868799999989 ], [ 8.2766375, 49.977847 ], [ 8.2766407, 49.9778252 ], [ 8.2766439, 49.9778035 ], [ 8.2766471, 49.9777817 ], [ 8.2766503, 49.9777599 ], [ 8.2766535, 49.9777381 ], [ 8.2766567, 49.9777163 ], [ 8.2766599, 49.9776946 ], [ 8.2766631, 49.9776728 ], [ 8.2766663, 49.977651 ], [ 8.2766696, 49.9776292 ], [ 8.2766728, 49.9776075 ], [ 8.276676, 49.9775857 ], [ 8.2766792, 49.9775639 ], [ 8.2766824, 49.9775421 ], [ 8.2766856, 49.9775204 ] ], [ [ 8.2772105, 49.9786416 ], [ 8.2771586, 49.9786385 ], [ 8.2771622, 49.978614300000011 ], [ 8.2771653, 49.978592699999986 ], [ 8.2771685, 49.9785712 ], [ 8.2771717, 49.9785496 ], [ 8.2771749, 49.9785281 ], [ 8.277178, 49.9785065 ], [ 8.2771812, 49.978485 ], [ 8.2771844, 49.9784634 ], [ 8.2771876, 49.9784419 ], [ 8.2771907, 49.97842030000001 ], [ 8.2771939, 49.978398799999987 ], [ 8.2771971, 49.9783772 ], [ 8.2772003, 49.9783556 ], [ 8.2772034, 49.9783341 ], [ 8.2772066, 49.9783125 ], [ 8.2772098, 49.978291 ], [ 8.2772129, 49.9782694 ], [ 8.2772161, 49.9782479 ], [ 8.2772193, 49.97822630000001 ], [ 8.2772225, 49.9782048 ], [ 8.2772256, 49.9781832 ], [ 8.2772288, 49.9781616 ], [ 8.277232, 49.978140099999983 ], [ 8.2772352, 49.9781185 ], [ 8.2772383, 49.978097 ], [ 8.2772415, 49.9780754 ], [ 8.2772438, 49.9780597 ], [ 8.277247, 49.9780378 ], [ 8.2772503, 49.9780159 ], [ 8.2772535, 49.9779939 ], [ 8.2772567, 49.977972 ], [ 8.27726, 49.9779501 ], [ 8.2772632, 49.9779282 ], [ 8.2772664, 49.9779062 ], [ 8.2772696, 49.977884299999985 ], [ 8.2772729, 49.977862399999985 ], [ 8.2772761, 49.9778405 ], [ 8.2772793, 49.9778186 ], [ 8.2772825, 49.9777966 ], [ 8.2772858, 49.9777747 ], [ 8.277289, 49.9777528 ], [ 8.2772922, 49.9777309 ], [ 8.2772955, 49.977709 ], [ 8.2772987, 49.977687 ], [ 8.2773019, 49.9776651 ], [ 8.2773051, 49.9776432 ], [ 8.2773084, 49.977621299999988 ], [ 8.2773116, 49.9775994 ], [ 8.2773148, 49.977577399999987 ], [ 8.277318, 49.9775555 ], [ 8.2773213, 49.9775336 ], [ 8.2773243, 49.9775132 ], [ 8.2773762, 49.9775163 ], [ 8.2773732, 49.9775368 ], [ 8.2773699, 49.9775587 ], [ 8.2773667, 49.9775806 ], [ 8.2773635, 49.9776025 ], [ 8.2773603, 49.9776245 ], [ 8.277357, 49.9776464 ], [ 8.2773538, 49.9776683 ], [ 8.2773506, 49.9776902 ], [ 8.2773474, 49.9777121 ], [ 8.2773441, 49.977734 ], [ 8.2773409, 49.977756 ], [ 8.2773377, 49.9777779 ], [ 8.2773344, 49.9777998 ], [ 8.2773312, 49.9778217 ], [ 8.277328, 49.9778436 ], [ 8.2773248, 49.9778656 ], [ 8.2773215, 49.9778875 ], [ 8.2773183, 49.9779094 ], [ 8.2773151, 49.9779313 ], [ 8.2773119, 49.9779532 ], [ 8.2773086, 49.9779752 ], [ 8.2773054, 49.9779971 ], [ 8.2773022, 49.978019 ], [ 8.277299, 49.9780409 ], [ 8.2772957, 49.9780628 ], [ 8.2772933, 49.9780794 ], [ 8.2772902, 49.9781001 ], [ 8.277287, 49.9781218 ], [ 8.2772839, 49.9781435 ], [ 8.2772807, 49.9781652 ], [ 8.2772775, 49.9781868 ], [ 8.2772743, 49.9782085 ], [ 8.2772711, 49.9782302 ], [ 8.2772679, 49.978251899999989 ], [ 8.2772647, 49.978273499999986 ], [ 8.2772615, 49.9782952 ], [ 8.2772583, 49.978316899999989 ], [ 8.2772551, 49.9783386 ], [ 8.2772519, 49.9783602 ], [ 8.2772487, 49.9783819 ], [ 8.2772456, 49.9784036 ], [ 8.2772424, 49.9784253 ], [ 8.2772392, 49.978447 ], [ 8.277236, 49.9784686 ], [ 8.2772328, 49.9784903 ], [ 8.2772296, 49.978512 ], [ 8.2772264, 49.9785337 ], [ 8.2772232, 49.9785553 ], [ 8.27722, 49.978577 ], [ 8.2772168, 49.9785987 ], [ 8.2772136, 49.9786204 ], [ 8.2772105, 49.9786416 ] ], [ [ 8.2778436, 49.9786395 ], [ 8.2778405, 49.9786601 ], [ 8.2778375, 49.9786806 ], [ 8.2776399, 49.9786685 ], [ 8.2776429, 49.9786479 ], [ 8.277646, 49.9786274 ], [ 8.277649, 49.9786068 ], [ 8.2776521, 49.9785862 ], [ 8.2776551, 49.9785657 ], [ 8.2776582, 49.9785451 ], [ 8.2776612, 49.9785245 ], [ 8.2776643, 49.978504 ], [ 8.2776674, 49.978483399999988 ], [ 8.2776704, 49.9784628 ], [ 8.2776735, 49.9784423 ], [ 8.2776765, 49.9784217 ], [ 8.2776796, 49.9784011 ], [ 8.2776826, 49.9783806 ], [ 8.2776857, 49.97836 ], [ 8.2776887, 49.9783394 ], [ 8.2776918, 49.9783189 ], [ 8.2776949, 49.9782983 ], [ 8.2776979, 49.9782777 ], [ 8.277701, 49.9782572 ], [ 8.277704, 49.9782366 ], [ 8.2777071, 49.978216 ], [ 8.2777101, 49.9781955 ], [ 8.2777132, 49.9781749 ], [ 8.2777162, 49.9781543 ], [ 8.2779139, 49.9781663 ], [ 8.2779108, 49.9781869 ], [ 8.2779078, 49.9782075 ], [ 8.2779047, 49.978228 ], [ 8.2779016, 49.9782486 ], [ 8.2778986, 49.9782692 ], [ 8.2778955, 49.9782898 ], [ 8.2778925, 49.978310299999983 ], [ 8.2778894, 49.9783309 ], [ 8.2778864, 49.9783515 ], [ 8.2778833, 49.978372 ], [ 8.2778802, 49.9783926 ], [ 8.2778772, 49.9784132 ], [ 8.2778741, 49.9784338 ], [ 8.2778711, 49.9784543 ], [ 8.277868, 49.9784749 ], [ 8.277865, 49.9784955 ], [ 8.2778619, 49.9785161 ], [ 8.2778589, 49.9785366 ], [ 8.2778558, 49.9785572 ], [ 8.2778527, 49.9785778 ], [ 8.2778497, 49.9785983 ], [ 8.2778466, 49.9786189 ], [ 8.2778436, 49.9786395 ] ], [ [ 8.2777681, 49.9791504 ], [ 8.277765, 49.9791716 ], [ 8.2777619, 49.9791927 ], [ 8.2775642, 49.9791808 ], [ 8.2775679, 49.9791558 ], [ 8.2775711, 49.9791337 ], [ 8.2775744, 49.9791117 ], [ 8.2775776, 49.9790896 ], [ 8.2775808, 49.9790675 ], [ 8.2775841, 49.9790454 ], [ 8.2775873, 49.9790233 ], [ 8.2775905, 49.9790012 ], [ 8.2775937, 49.978979099999989 ], [ 8.277597, 49.978957099999988 ], [ 8.2776002, 49.978935 ], [ 8.2776034, 49.9789129 ], [ 8.2776067, 49.9788908 ], [ 8.2776099, 49.9788687 ], [ 8.2776131, 49.9788466 ], [ 8.2776164, 49.978824499999988 ], [ 8.2776196, 49.978802499999986 ], [ 8.2776228, 49.9787804 ], [ 8.2776261, 49.9787583 ], [ 8.2776293, 49.9787362 ], [ 8.2778269, 49.9787482 ], [ 8.2778238, 49.97876930000001 ], [ 8.2778207, 49.9787905 ], [ 8.2778176, 49.9788117 ], [ 8.2778145, 49.9788328 ], [ 8.2778114, 49.978854 ], [ 8.2778083, 49.9788752 ], [ 8.2778052, 49.9788964 ], [ 8.2778022, 49.9789175 ], [ 8.2777991, 49.9789387 ], [ 8.277796, 49.9789599 ], [ 8.2777929, 49.978981 ], [ 8.2777898, 49.9790022 ], [ 8.2777867, 49.9790234 ], [ 8.2777836, 49.9790445 ], [ 8.2777805, 49.9790657 ], [ 8.2777774, 49.979086899999984 ], [ 8.2777743, 49.9791081 ], [ 8.2777712, 49.9791292 ], [ 8.2777681, 49.9791504 ] ] ] ] } },
{ "type": "Feature", "properties": { "element": "relation", "id": 12955627, "amenity": "parking", "flaeche_m2": 5184.0863670845974, "prioritaet": "Hoch", "massnahme": "Pocket-Park" }, "geometry": { "type": "MultiPolygon", "coordinates": [ [ [ [ 8.2337641, 50.0134315 ], [ 8.2339656, 50.0137365 ], [ 8.2341286, 50.0139381 ], [ 8.2342012, 50.0139056 ], [ 8.2342611, 50.0139451 ], [ 8.2348334, 50.0135886 ], [ 8.2348283, 50.0134681 ], [ 8.2348286, 50.0134386 ], [ 8.2348173, 50.0134166 ], [ 8.2347947, 50.013407 ], [ 8.2347572, 50.0134057 ], [ 8.2347559, 50.013379099999987 ], [ 8.2347556, 50.0133485 ], [ 8.2347913, 50.013345199999989 ], [ 8.2348235, 50.0133345 ], [ 8.2348264, 50.013252099999988 ], [ 8.2348577, 50.0130467 ], [ 8.2339012, 50.0132329 ], [ 8.2337305, 50.0132655 ], [ 8.233689, 50.0132744 ], [ 8.2337641, 50.0134315 ] ] ] ] } },
{ "type": "Feature", "properties": { "element": "relation", "id": 14938537, "amenity": "parking", "flaeche_m2": 877.71151624859749, "prioritaet": "Hoch", "massnahme": "Pocket-Park" }, "geometry": { "type": "MultiPolygon", "coordinates": [ [ [ [ 8.2725828, 49.980919099999987 ], [ 8.2726067, 49.9809218 ], [ 8.272665, 49.980943 ], [ 8.2726948, 49.9809674 ], [ 8.2727111, 49.9809923 ], [ 8.2727205, 49.9810225 ], [ 8.2727184, 49.9810452 ], [ 8.2727138, 49.9810619 ], [ 8.2728094, 49.9810733 ], [ 8.2728124, 49.9810471 ], [ 8.2728094, 49.9810241 ], [ 8.2728055, 49.9810049 ], [ 8.2727907, 49.9809847 ], [ 8.2727766, 49.9809659 ], [ 8.2727781, 49.980941 ], [ 8.272844, 49.9809484 ], [ 8.2729367, 49.9806073 ], [ 8.2726349, 49.9805734 ], [ 8.2725407, 49.9809195 ], [ 8.2725828, 49.980919099999987 ] ], [ [ 8.2727591, 49.9806188 ], [ 8.2727907, 49.9806223 ], [ 8.2727177, 49.9808947 ], [ 8.2726861, 49.9808912 ], [ 8.2727591, 49.9806188 ] ] ] ] } },
{ "type": "Feature", "properties": { "element": "relation", "id": 15815291, "amenity": "parking", "flaeche_m2": 11044.677948496697, "prioritaet": "Hoch", "massnahme": "Pocket-Park" }, "geometry": { "type": "MultiPolygon", "coordinates": [ [ [ [ 8.2866076, 49.9742466 ], [ 8.2886518, 49.9737826 ], [ 8.2883333, 49.9733536 ], [ 8.2881725, 49.9734051 ], [ 8.2882898, 49.9735568 ], [ 8.287932, 49.9736705 ], [ 8.287917, 49.973675299999989 ], [ 8.2877859, 49.973519799999984 ], [ 8.2858787, 49.9741677 ], [ 8.2856425, 49.9742394 ], [ 8.285683, 49.9742972 ], [ 8.2852902, 49.9743098 ], [ 8.2852594, 49.9742544 ], [ 8.2848875, 49.9742626 ], [ 8.2845186, 49.974272 ], [ 8.2844066, 49.9741263 ], [ 8.284463, 49.9738955 ], [ 8.2849577, 49.9737231 ], [ 8.2853075, 49.973605599999985 ], [ 8.2852368, 49.973538499999989 ], [ 8.2852184, 49.9735444 ], [ 8.2849324, 49.9735759 ], [ 8.2848529, 49.97360470000001 ], [ 8.2848246, 49.9735727 ], [ 8.2843513, 49.9737275 ], [ 8.2843751, 49.9737711 ], [ 8.2842726, 49.9738731 ], [ 8.2842144, 49.9738694 ], [ 8.28415, 49.9741338 ], [ 8.2842502, 49.9742884 ], [ 8.2843152, 49.974270399999988 ], [ 8.2843832, 49.9743247 ], [ 8.2843957, 49.9744039 ], [ 8.2854423, 49.9743997 ], [ 8.2859489, 49.9743729 ], [ 8.2866076, 49.9742466 ] ] ] ] } },
{ "type": "Feature", "properties": { "element": "relation", "id": 17800303, "amenity": "parking", "flaeche_m2": 1762.2878503523946, "prioritaet": "Hoch", "massnahme": "Pocket-Park" }, "geometry": { "type": "MultiPolygon", "coordinates": [ [ [ [ 8.2678778, 49.9596751 ], [ 8.267805, 49.9596913 ], [ 8.2677884, 49.9596925 ], [ 8.2677752, 49.9596901 ], [ 8.2677611, 49.9596872 ], [ 8.2677477, 49.9596815 ], [ 8.2677849, 49.959744699999987 ], [ 8.2677887, 49.9597399 ], [ 8.2677925, 49.9597373 ], [ 8.2678051, 49.9597347 ], [ 8.2679346, 49.9597083 ], [ 8.2680529, 49.9596836 ], [ 8.2680594, 49.9596835 ], [ 8.2680657, 49.9596861 ], [ 8.2680675, 49.9596894 ], [ 8.2680971, 49.9596372 ], [ 8.2681244, 49.9595891 ], [ 8.2681711, 49.9595099 ], [ 8.2682153, 49.9594467 ], [ 8.2682527, 49.9594049 ], [ 8.2682917, 49.9593989 ], [ 8.2683238, 49.9593628 ], [ 8.2683833, 49.9593828 ], [ 8.2685074, 49.959256 ], [ 8.2684534, 49.9592314 ], [ 8.268551, 49.95919 ], [ 8.2685449, 49.9591302 ], [ 8.2685122, 49.959098399999988 ], [ 8.2681829, 49.9592029 ], [ 8.2680073, 49.9592452 ], [ 8.2677587, 49.959289399999989 ], [ 8.2677786, 49.9593259 ], [ 8.2677674, 49.9593278 ], [ 8.2677563, 49.9593296 ], [ 8.2677366, 49.9593348 ], [ 8.2676747, 49.9593455 ], [ 8.2676839, 49.9593675 ], [ 8.2676931, 49.9593895 ], [ 8.2677022, 49.9594116 ], [ 8.2677114, 49.9594336 ], [ 8.2677206, 49.9594556 ], [ 8.2677298, 49.9594776 ], [ 8.2677389, 49.9594997 ], [ 8.2677481, 49.95952170000001 ], [ 8.2677573, 49.9595437 ], [ 8.2677665, 49.9595657 ], [ 8.2677756, 49.9595878 ], [ 8.2677848, 49.9596098 ], [ 8.267794, 49.9596318 ], [ 8.267856, 49.9596211 ], [ 8.2678643, 49.95962320000001 ], [ 8.2678692, 49.959626799999988 ], [ 8.2678745, 49.9596401 ], [ 8.267867, 49.959650099999983 ], [ 8.2678778, 49.9596751 ] ], [ [ 8.2679732, 49.9595597 ], [ 8.2679652, 49.9595416 ], [ 8.2679572, 49.9595235 ], [ 8.2679492, 49.9595053 ], [ 8.2679412, 49.9594872 ], [ 8.2679332, 49.9594691 ], [ 8.2679252, 49.959451 ], [ 8.2679172, 49.9594329 ], [ 8.2679092, 49.9594147 ], [ 8.2679035, 49.95940190000001 ], [ 8.2679396, 49.9593953 ], [ 8.2679757, 49.9593887 ], [ 8.2680119, 49.9593821 ], [ 8.268048, 49.9593755 ], [ 8.2680841, 49.9593689 ], [ 8.2681202, 49.9593623 ], [ 8.2681021, 49.9593214 ], [ 8.2682377, 49.9592895 ], [ 8.2682539, 49.9592951 ], [ 8.268262, 49.9593038 ], [ 8.2682626, 49.9593177 ], [ 8.2682577, 49.9593215 ], [ 8.2682468, 49.959323799999986 ], [ 8.2682344, 49.9593244 ], [ 8.2681911, 49.95931 ], [ 8.2681755, 49.9593294 ], [ 8.26816, 49.9593488 ], [ 8.2681445, 49.9593682 ], [ 8.2681289, 49.9593876 ], [ 8.2681134, 49.9594069 ], [ 8.2680978, 49.9594263 ], [ 8.2680823, 49.959445700000011 ], [ 8.2680667, 49.9594651 ], [ 8.2680512, 49.9594845 ], [ 8.2680356, 49.959503899999987 ], [ 8.2680201, 49.9595233 ], [ 8.2680045, 49.9595427 ], [ 8.267989, 49.9595621 ], [ 8.2680488, 49.9595819 ], [ 8.2680041, 49.9596413 ], [ 8.2679905, 49.9596444 ], [ 8.2679703, 49.9596448 ], [ 8.2679534, 49.959637 ], [ 8.2679352, 49.9596183 ], [ 8.2679152, 49.9595703 ], [ 8.2679732, 49.9595597 ] ] ] ] } },
{ "type": "Feature", "properties": { "element": "relation", "id": 17874324, "amenity": "parking", "flaeche_m2": 2084.4835177202594, "prioritaet": "Hoch", "massnahme": "Pocket-Park" }, "geometry": { "type": "MultiPolygon", "coordinates": [ [ [ [ 8.2783575, 49.9823097 ], [ 8.278475, 49.9822689 ], [ 8.2784528, 49.9822369 ], [ 8.2790491, 49.9820659 ], [ 8.2791029, 49.9821435 ], [ 8.27922, 49.9823122 ], [ 8.2792894, 49.9822875 ], [ 8.2797183, 49.9823075 ], [ 8.279723, 49.9822659 ], [ 8.2797888, 49.9822693 ], [ 8.2797994, 49.982182 ], [ 8.279802, 49.982163799999988 ], [ 8.2798231, 49.9820083 ], [ 8.2797625, 49.98200580000001 ], [ 8.2797658, 49.9819643 ], [ 8.2793435, 49.981935399999983 ], [ 8.2791893, 49.981981200000014 ], [ 8.2792117, 49.9820164 ], [ 8.2791801, 49.9820249 ], [ 8.2791333, 49.9819545 ], [ 8.278465, 49.98219850000001 ], [ 8.2784599, 49.9821973 ], [ 8.2784553, 49.9821927 ], [ 8.2783279, 49.9822383 ], [ 8.2783686, 49.9822409 ], [ 8.2783739, 49.9822466 ], [ 8.2783154, 49.9822649 ], [ 8.2783575, 49.9823097 ] ], [ [ 8.2792492, 49.9821829 ], [ 8.2792156, 49.9821384 ], [ 8.2793652, 49.9820884 ], [ 8.2795866, 49.982100699999982 ], [ 8.27958, 49.9821532 ], [ 8.2792578, 49.982135 ], [ 8.2792492, 49.9821829 ] ] ] ] } },
{ "type": "Feature", "properties": { "element": "relation", "id": 18456739, "amenity": "parking", "flaeche_m2": 1116.9930022835549, "prioritaet": "Hoch", "massnahme": "Pocket-Park" }, "geometry": { "type": "MultiPolygon", "coordinates": [ [ [ [ 8.2543892, 49.9467528 ], [ 8.2544324, 49.9467569 ], [ 8.254457, 49.9466554 ], [ 8.2544602, 49.9466506 ], [ 8.2544642, 49.9466464 ], [ 8.2544694, 49.9466438 ], [ 8.2544747, 49.9466428 ], [ 8.254493, 49.9466447 ], [ 8.2544821, 49.946687899999986 ], [ 8.2546554, 49.9467059 ], [ 8.2546665, 49.9466617 ], [ 8.2547343, 49.9466687 ], [ 8.2547593, 49.9465693 ], [ 8.254691, 49.946562299999975 ], [ 8.2547022, 49.94651769999998 ], [ 8.2545877, 49.9465058 ], [ 8.2546071, 49.9464282 ], [ 8.2545489, 49.9464218 ], [ 8.2545483, 49.9464217 ], [ 8.2545444, 49.9464395 ], [ 8.254474, 49.946434 ], [ 8.2544634, 49.9464828 ], [ 8.2544507, 49.9465266 ], [ 8.2544467, 49.946533299999984 ], [ 8.2544394, 49.9465376 ], [ 8.2544322, 49.946539300000012 ], [ 8.2544215, 49.9465403 ], [ 8.2544087, 49.9465392 ], [ 8.254421, 49.9464927 ], [ 8.2543848, 49.9464887 ], [ 8.2543486, 49.9464847 ], [ 8.2543124, 49.9464808 ], [ 8.254315, 49.9464694 ], [ 8.2541777, 49.946457 ], [ 8.2541673, 49.9464993 ], [ 8.2541639, 49.9465031 ], [ 8.2541601, 49.9465069 ], [ 8.2541514, 49.9465089 ], [ 8.2541445, 49.9465101 ], [ 8.2541347, 49.9465089 ], [ 8.2541448, 49.9464637 ], [ 8.2541012, 49.9464597 ], [ 8.2540576, 49.9464557 ], [ 8.2540475, 49.9465008 ], [ 8.2540468, 49.946502700000011 ], [ 8.2540433, 49.9465057 ], [ 8.2540381, 49.9465078 ], [ 8.2540304, 49.9465089 ], [ 8.2539972, 49.946506399999983 ], [ 8.253976, 49.9466037 ], [ 8.2539732, 49.9466197 ], [ 8.2540486, 49.946626699999989 ], [ 8.2540587, 49.946581 ], [ 8.2540695, 49.9465821 ], [ 8.2540591, 49.9466283 ], [ 8.2540942, 49.9466317 ], [ 8.2541293, 49.9466352 ], [ 8.2541644, 49.9466387 ], [ 8.2541995, 49.9466421 ], [ 8.2542346, 49.9466456 ], [ 8.2542696, 49.9466491 ], [ 8.2543047, 49.9466526 ], [ 8.2543398, 49.946656 ], [ 8.2543504, 49.9466118 ], [ 8.2543527, 49.9466106 ], [ 8.2543548, 49.9466103 ], [ 8.2543594, 49.94661030000001 ], [ 8.2543624, 49.9466111 ], [ 8.2543645, 49.9466123 ], [ 8.2543653, 49.9466133 ], [ 8.254366, 49.946615 ], [ 8.254334, 49.9467476 ], [ 8.2543892, 49.9467528 ] ], [ [ 8.2543001, 49.9465273 ], [ 8.2542917, 49.9465263 ], [ 8.2542854, 49.9465241 ], [ 8.2542794, 49.9465206 ], [ 8.2542749, 49.9465154 ], [ 8.2542741, 49.9465078 ], [ 8.2542772, 49.9464957 ], [ 8.2542812, 49.9464887 ], [ 8.2542868, 49.946483599999986 ], [ 8.2542953, 49.94648080000001 ], [ 8.2543034, 49.94648 ], [ 8.2543124, 49.9464808 ], [ 8.2543001, 49.9465273 ] ] ] ] } }
]
}
