{
  "type": "FeatureCollection",
  "name": "parkplaetze_klima",
  "crs": { "type": "name", "properties": { "name": "urn:ogc:def:crs:OGC:1.3:CRS84" } },
  "features": [
    {
      "type": "Feature",
      "properties": {
        "amenity": "parking",
        "temp_klasse": "stark",
        "score": 100
      },
      "geometry": {
        "type": "Polygon",
        "coordinates": [
          [
            [8.2450, 49.9920],
            [8.2460, 49.9920],
            [8.2460, 49.9910],
            [8.2450, 49.9910],
            [8.2450, 49.9920]
          ]
        ]
      }
    }
  ]
}